LEMUR-2-CHANUSIAK       
1 43697U 18088H   20127.44735775  .00002097  00000-0  89965-4 0  9997
2 43697  85.0359 105.2470 0018534  82.4242 277.9104 15.21909287 82445
LEMUR-2-ORZULAK         
1 43731U 18096N   20127.20725800  .00002238  00000-0  82752-4 0  9991
2 43731  97.4252 202.0427 0018491 275.4692  84.4438 15.28629209 79993
LEMUR-2-KOBYSZCZE       
1 43732U 18096P   20127.29040121  .00002210  00000-0  81402-4 0  9998
2 43732  97.4258 202.2605 0018592 275.2932  84.6186 15.28773020 80015
LEMUR-2-DULY            
1 43745U 18096AC  20126.90626697  .00001967  00000-0  72612-4 0  9998
2 43745  97.4251 201.8286 0018455 276.2845  83.6293 15.28850210 79961
LEMUR-2-VLADIMIR        
1 43746U 18096AD  20127.19884410  .00002297  00000-0  84165-4 0  9993
2 43746  97.4250 202.1920 0018511 275.4172  84.4956 15.28902510 80033
LEMUR-2-CHRISTINAHOLT   
1 43882U 18111G   20127.38172137  .00000152  00000-0  18315-4 0  9991
2 43882  97.7080  36.0498 0012825  31.5949 328.6040 14.96851750 72218
LEMUR-2-TINYKEV         
1 43883U 18111H   20127.23007974  .00001166  00000-0  10645-3 0  9995
2 43883  97.7079  35.9530 0012718  33.1600 327.0416 14.96922804 74193
LEMUR-2-REMY-COLTON     
1 43884U 18111J   20127.48605422  .00000887  00000-0  82089-4 0  9996
2 43884  97.7085  36.2648 0012395  30.8909 329.3039 14.96988776 72242
LEMUR-2-GUSTAVO         
1 43885U 18111K   20127.41576133  .00000660  00000-0  62469-4 0  9995
2 43885  97.7080  36.2029 0012209  30.1935 329.9988 14.96938616 72222
LEMUR-2-ZO              
1 43886U 18111L   20127.52150533 -.00000092  00000-0 -29585-5 0  9994
2 43886  97.7091  36.4012 0012391  28.2875 331.9017 14.97029899 72245
LEMUR-2-NATALIEMURRAY   
1 43887U 18111M   20127.28318055  .00000712  00000-0  66660-4 0  9994
2 43887  97.7086  36.2542 0012181  28.7979 331.3913 14.97146404 74213
LEMUR-2-SARAHBETTYBOO   
1 43888U 18111N   20127.19777141  .00000087  00000-0  12566-4 0  9991
2 43888  97.7095  36.2597 0012294  26.4805 333.7042 14.97194054 74204
LEMUR-2-DAISY-HARPER    
1 43889U 18111P   20127.30833049  .00000625  00000-0  58914-4 0  9990
2 43889  97.7105  36.4197 0012497  28.3773 331.8127 14.97283496 74218
LEMUR-2-JOHANLORAN      
1 44084U 19018G   20127.22549572  .00002612  00000-0  11411-3 0  9999
2 44084  97.4135 188.6234 0011950 322.7037  37.3369 15.22943209 60984
LEMUR-2-BEAUDACIOUS     
1 44085U 19018H   20127.09543130  .00001328  00000-0  59780-4 0  9994
2 44085  97.4134 188.4912 0012209 324.0915  35.9500 15.22787573 60962
LEMUR-2-ELHAM           
1 44086U 19018J   20127.05678234  .00002502  00000-0  10873-3 0  9999
2 44086  97.4142 188.5707 0012065 324.5902  35.4532 15.23165423 60961
LEMUR-2-VICTOR-ANDREW   
1 44087U 19018K   20127.44088579  .00002748  00000-0  11897-3 0  9999
2 44087  97.4142 188.9728 0011844 323.9652  36.0785 15.23204589 61020
LEMUR-2-LILLYJO         
1 44396U 19038L   20127.15340449  .00001482  00000-0  88253-4 0  9994
2 44396  97.5298  88.9592 0022960 273.1337  86.7266 15.12580290 46181
LEMUR-2-WANLI           
1 44402U 19038S   20127.16664446  .00001452  00000-0  86700-4 0  9991
2 44402  97.5304  88.9661 0023048 273.4712  86.3883 15.12515966 46192
LEMUR-2-MORAG           
1 44403U 19038T   20127.49322079  .00001653  00000-0  98077-4 0  9994
2 44403  97.5338  89.4150 0021816 275.9544  83.9201 15.12574006 46243
LEMUR-2-DUSTINTHEWIND   
1 44405U 19038V   20127.14309884  .00001514  00000-0  89856-4 0  9998
2 44405  97.5293  88.9519 0022935 272.8906  86.9700 15.12662376 46198
LEMUR-2-ALEX-MADDY      
1 44407U 19038X   20127.44065631  .00001140  00000-0  69203-4 0  9991
2 44407  97.5341  89.3279 0021896 276.5847  83.2891 15.12366309 46224
LEMUR-2-EJATTA          
1 44409U 19038Z   20127.12233566  .00001548  00000-0  91506-4 0  9995
2 44409  97.5290  88.9633 0022753 272.3465  87.5161 15.12788245 46191
LEMUR-2-GREGROBINSON    
1 44411U 19038AB  20127.44140198  .00001691  00000-0  10041-3 0  9994
2 44411  97.5347  89.3659 0021939 276.9816  82.8919 15.12506625 45902
LEMUR-2-YNDRD           
1 44413U 19038AD  20127.03377720  .00000928  00000-0  57050-4 0  9998
2 44413  97.5333  88.9211 0021778 277.7592  82.1165 15.12367684 46175
LEMUR-2-JPGSQUARED      
1 44855U 19089D   20127.28733879  .00000900  00000-0  79604-4 0  9991
2 44855  36.9697 347.8594 0004979  63.9656 296.1597 14.98860369 22021
LEMUR-2-HIMOMANDDAD     
1 44860U 19089J   20126.96702298  .00000760  00000-0  68440-4 0  9992
2 44860  36.9687 349.9283 0005259  54.8417 305.2804 14.98714633 21978
LEMUR-2-PAPPY           
1 44861U 19089K   20127.29521821  .00000770  00000-0  69197-4 0  9992
2 44861  36.9684 347.9177 0005114  59.6902 300.4353 14.98768170 21968
